ONEWEB-0020             
1 45133U 20008C   25063.44757788 -.00000394  00000+0 -11639-2 0  9991
2 45133  87.8874 129.8940 0001724  99.2555 260.8767 13.10375027246829
ONEWEB-0021             
1 45134U 20008D   25063.46252816  .00000292  00000+0  79916-3 0  9994
2 45134  87.8879 129.9187 0002056 103.6886 256.4470 13.10376178247130
ONEWEB-0023             
1 45136U 20008F   25063.62603653  .00000677  00000+0  19042-2 0  9993
2 45136  87.8874 129.8724 0001724 109.0492 251.0822 13.10373858246589
ONEWEB-0024             
1 45137U 20008G   25063.44591716 -.00000481  00000+0 -14145-2 0  9994
2 45137  87.8865 129.8696 0002012 101.3632 258.7721 13.10375002246721
ONEWEB-0025             
1 45138U 20008H   25064.15134295 -.00001342  00000+0 -38806-2 0  9996
2 45138  87.8869 129.7302 0002196 114.2852 245.8505 13.10382262247891
ONEWEB-0026             
1 45139U 20008J   25063.39933182 -.00000560  00000+0 -16154-2 0  9997
2 45139  87.8844 114.7181 0001910  93.6817 266.4530 13.11415065249537
ONEWEB-0028             
1 45140U 20008K   25063.50701795  .00000461  00000+0  12655-2 0  9995
2 45140  87.8839 114.7256 0002105 115.8220 244.3125 13.11418406247061
ONEWEB-0032             
1 45141U 20008L   25063.63184797  .00000711  00000+0  19995-2 0  9999
2 45141  87.8864 129.8839 0002004 108.5571 251.5774 13.10372291246801
